SL-8 R/B                
1 15483U 85006B   26164.95670987  .00000202  00000+0  75532-4 0  9999
2 15483  74.0459  84.0087 0018778 331.6388 102.3437 14.37833853167865
SL-12 R/B(2)            
1 15772U 85042D   26164.65381590  .00000051  00000+0  44317-4 0  9995
2 15772  71.1080 244.9813 0036135 333.1239 133.4416 14.22005250128031
SL-14 R/B               
1 15945U 85069B   26164.87084660  .00000404  00000+0  42792-4 0  9995
2 15945  82.5268 294.4849 0017566 230.8271 129.1386 14.86513255187124
SL-16 R/B               
1 16182U 85097B   26164.81699169 -.00000245  00000+0 -98914-4 0  9992
2 16182  71.0035 298.1734 0005444 118.3795 350.6477 14.16610900100844
SL-14 R/B               
1 16496U 86006B   26164.95605409  .00000552  00000+0  55930-4 0  9990
2 16496  82.5262 169.1540 0075156 314.3822  45.1254 14.86942754163513
COSMOS 1743             
1 16719U 86034A   26164.88956777  .00048161  00000+0  45748-3 0  9991
2 16719  82.5269 332.2378 0003788 286.5832  73.5012 15.66668514195276
SL-14 R/B               
1 16792U 86046B   26164.92002212  .00000376  00000+0  40471-4 0  9991
2 16792  82.4816 349.2630 0021567 270.0365  89.8380 14.85669084140694
SL-14 R/B               
1 16882U 86055B   26164.90292122  .00000376  00000+0  40381-4 0  9990
2 16882  82.5205  36.2208 0019362  18.3693 352.0814 14.85721129133652
AJISAI (EGS)            
1 16908U 86061A   26164.92708832 -.00000102  00000+0 -34256-4 0  9991
2 16908  50.0071 157.4199 0011230 172.3574 274.5343 12.44516784479988
SL-14 R/B               
1 17567U 87024B   26164.91847934  .00000365  00000+0  38703-4 0  9999
2 17567  82.5281   2.3234 0016940 304.9427  55.0197 14.86211358102422
COSMOS 1833             
1 17589U 87027A   26164.92275648  .00000309  00000+0  19062-3 0  9998
2 17589  70.9172 123.7298 0022716  60.5733 299.7651 14.13047561 23918
SL-16 R/B               
1 17590U 87027B   26164.96924911 -.00000149  00000+0 -49844-4 0  9994
2 17590  71.0034  73.6096 0006396 315.9100  44.1513 14.17172580 28984
SL-14 R/B               
1 17912U 87038B   26164.82818593  .00000312  00000+0  33331-4 0  9991
2 17912  82.5010 206.2363 0018585 202.5373 157.5029 14.85443380 93505
COSMOS 1844             
1 17973U 87041A   26164.50071198 -.00000161  00000+0 -58438-4 0  9998
2 17973  70.8974 192.0836 0033069 240.9035 118.8775 14.14568796 17137
SL-14 R/B               
1 18153U 87055B   26164.72093954  .00000380  00000+0  40752-4 0  9993
2 18153  82.4995 258.4964 0021896  58.5013 301.8339 14.85708984 84196
COSMOS 1867             
1 18187U 87060A   26164.91962368 -.00000029  00000+0  26870-4 0  9997
2 18187  65.0116  37.2099 0016446 282.1003  77.8239 14.31515478 33712
SL-14 R/B               
1 18749U 88001B   26164.92476372  .00000388  00000+0  42007-4 0  9990
2 18749  82.5131 104.8428 0016476 281.3910  78.5455 14.85607613 56316
COSMOS 1933             
1 18958U 88020A   26164.94079811  .00003275  00000+0  15650-3 0  9993
2 18958  82.5114 155.6497 0003111 197.8649 162.2476 15.18693756 64831
SL-3 R/B                
1 19046U 88032B   26164.95334279  .00004339  00000+0  19854-3 0  9990
2 19046  97.5247 147.9973 0023700 257.1246 102.7342 15.20819114 66738
SL-16 R/B               
1 19120U 88039B   26164.87959873 -.00000119  00000+0 -33381-4 0  9990
2 19120  71.0141 225.1522 0022462 198.0529 161.9802 14.19629482972032
COSMOS 1953             
1 19210U 88050A   26164.74857120  .00007812  00000+0  26791-3 0  9992
2 19210  82.5086  61.5019 0011912 136.8086 223.4091 15.29934125 52461
SL-8 R/B                
1 19257U 88053B   26164.81728522  .00000154  00000+0  58194-4 0  9992
2 19257  74.0479 295.2692 0019169  91.8353  19.6817 14.38966270990429
COSMOS 1975             
1 19573U 88093A   26164.88277576  .00007546  00000+0  26406-3 0  9994
2 19573  82.5195  21.0265 0010982 182.9263 177.1915 15.29288120 34101
SL-14 R/B               
1 19574U 88093B   26164.91656983  .00000418  00000+0  45117-4 0  9994
2 19574  82.5309 311.7155 0022163  80.5250  40.8820 14.85739646 15306
SL-16 R/B               
1 19650U 88102B   26164.82670082 -.00000242  00000+0 -97984-4 0  9992
2 19650  71.0002 309.2103 0015944 230.1237 129.8485 14.16165253940501
INTERCOSMOS 24          
1 20261U 89080A   26164.91903468  .00000879  00000+0  24967-3 0  9999
2 20261  82.6068  41.7714 1188390  69.4814 302.9624 12.59657103678915
SL-14 R/B               
1 20262U 89080C   26164.88244523  .00000309  00000+0  92412-4 0  9995
2 20262  82.5929 111.4307 1228921 324.9648  27.6224 12.50569022672175
DELTA 1 R/B             
1 20323U 89089B   26164.56370762  .00000327  00000+0  89381-4 0  9993
2 20323  97.0637 356.7018 0068913 178.3878 181.7555 14.50729331909637
ARIANE 40 R/B           
1 20443U 90005H   26164.91771756  .00000215  00000+0  81825-4 0  9994
2 20443  98.2960 222.6353 0008798 275.7051  84.3134 14.39925735906658
DELTA 2 R/B(1)          
1 20453U 90008B   26164.94463103  .00080584  00000+0  60673-3 0  9999
2 20453  35.6001 257.3443 0065604  83.4720 277.3483 15.68352967941194
