OBJECT_NAME,OBJECT_ID,EPOCH,MEAN_MOTION,ECCENTRICITY,INCLINATION,RA_OF_ASC_NODE,ARG_OF_PERICENTER,MEAN_ANOMALY,EPHEMERIS_TYPE,CLASSIFICATION_TYPE,NORAD_CAT_ID,ELEMENT_SET_NO,REV_AT_EPOCH,BSTAR,MEAN_MOTION_DOT,MEAN_MOTION_DDOT
SL-8 R/B,1985-006B,2026-06-13T22:57:39.732768,14.37833853,.00187781,74.0459,84.0087,331.6388,102.3437,0,U,15483,999,16786,.75532285E-4,.202E-5,0
SL-12 R/B(2),1985-042D,2026-06-13T15:41:29.693760,14.22005250,.0036135,71.1080,244.9813,333.1239,133.4416,0,U,15772,999,12803,.4431676E-4,.51E-6,0
SL-14 R/B,1985-069B,2026-06-13T20:54:01.146240,14.86513255,.00175667,82.5268,294.4849,230.8271,129.1386,0,U,15945,999,18712,.42791626E-4,.404E-5,0
SL-16 R/B,1985-097B,2026-06-13T19:36:28.082016,14.16610900,.00054445,71.0035,298.1734,118.3795,350.6477,0,U,16182,999,10084,-.9891426E-4,-.245E-5,0
SL-14 R/B,1986-006B,2026-06-13T22:56:43.073376,14.86942754,.00751566,82.5262,169.1540,314.3822,45.1254,0,U,16496,999,16351,.55930481E-4,.552E-5,0
COSMOS 1743,1986-034A,2026-06-13T21:20:58.655328,15.66668514,.00037887,82.5269,332.2378,286.5832,73.5012,0,U,16719,999,19527,.45748397E-3,.48161E-3,0
SL-14 R/B,1986-046B,2026-06-13T22:04:49.911168,14.85669084,.00215679,82.4816,349.2630,270.0365,89.8380,0,U,16792,999,14069,.40470742E-4,.376E-5,0
SL-14 R/B,1986-055B,2026-06-13T21:40:12.393408,14.85721129,.00193625,82.5205,36.2208,18.3693,352.0814,0,U,16882,999,13365,.40380791E-4,.376E-5,0
AJISAI (EGS),1986-061A,2026-06-13T22:15:00.430848,12.44516784,.00112304,50.0071,157.4199,172.3574,274.5343,0,U,16908,999,47998,-.34255526E-4,-.102E-5,0
SL-14 R/B,1987-024B,2026-06-13T22:02:36.614976,14.86211358,.00169404,82.5281,2.3234,304.9427,55.0197,0,U,17567,999,10242,.38703073E-4,.365E-5,0
COSMOS 1833,1987-027A,2026-06-13T22:08:46.159872,14.13047561,.00227161,70.9172,123.7298,60.5733,299.7651,0,U,17589,999,2391,.19061537E-3,.309E-5,0
SL-16 R/B,1987-027B,2026-06-13T23:15:43.123104,14.17172580,.00063963,71.0034,73.6096,315.9100,44.1513,0,U,17590,999,2898,-.49844419E-4,-.149E-5,0
SL-14 R/B,1987-038B,2026-06-13T19:52:35.264352,14.85443380,.00185853,82.5010,206.2363,202.5373,157.5029,0,U,17912,999,9350,.3333116E-4,.312E-5,0
COSMOS 1844,1987-041A,2026-06-13T12:01:01.515072,14.14568796,.00330696,70.8974,192.0836,240.9035,118.8775,0,U,17973,999,1713,-.58438192E-4,-.161E-5,0
SL-14 R/B,1987-055B,2026-06-13T17:18:09.176256,14.85708984,.00218969,82.4995,258.4964,58.5013,301.8339,0,U,18153,999,8419,.40752449E-4,.38E-5,0
COSMOS 1867,1987-060A,2026-06-13T22:04:15.485952,14.31515478,.00164465,65.0116,37.2099,282.1003,77.8239,0,U,18187,999,3371,.26870424E-4,-.29E-6,0
SL-14 R/B,1988-001B,2026-06-13T22:11:39.585408,14.85607613,.00164763,82.5131,104.8428,281.3910,78.5455,0,U,18749,999,5631,.42007431E-4,.388E-5,0
COSMOS 1933,1988-020A,2026-06-13T22:34:44.956704,15.18693756,.00031111,82.5114,155.6497,197.8649,162.2476,0,U,18958,999,6483,.15649846E-3,.3275E-4,0
SL-3 R/B,1988-032B,2026-06-13T22:52:48.817056,15.20819114,.00237002,97.5247,147.9973,257.1246,102.7342,0,U,19046,999,6673,.19853977E-3,.4339E-4,0
SL-16 R/B,1988-039B,2026-06-13T21:06:37.330272,14.19629482,.00224626,71.0141,225.1522,198.0529,161.9802,0,U,19120,999,97203,-.3338093E-4,-.119E-5,0
COSMOS 1953,1988-050A,2026-06-13T17:57:56.551680,15.29934125,.00119125,82.5086,61.5019,136.8086,223.4091,0,U,19210,999,5246,.26791239E-3,.7812E-4,0
SL-8 R/B,1988-053B,2026-06-13T19:36:53.443008,14.38966270,.00191694,74.0479,295.2692,91.8353,19.6817,0,U,19257,999,99042,.58193666E-4,.154E-5,0
COSMOS 1975,1988-093A,2026-06-13T21:11:11.825664,15.29288120,.00109825,82.5195,21.0265,182.9263,177.1915,0,U,19573,999,3410,.26406036E-3,.7546E-4,0
SL-14 R/B,1988-093B,2026-06-13T21:59:51.633312,14.85739646,.00221631,82.5309,311.7155,80.5250,40.8820,0,U,19574,999,1530,.4511735E-4,.418E-5,0
SL-16 R/B,1988-102B,2026-06-13T19:50:26.950848,14.16165253,.00159447,71.0002,309.2103,230.1237,129.8485,0,U,19650,999,94050,-.97983677E-4,-.242E-5,0
INTERCOSMOS 24,1989-080A,2026-06-13T22:03:24.596352,12.59657103,.11883909,82.6068,41.7714,69.4814,302.9624,0,U,20261,999,67891,.24967413E-3,.879E-5,0
SL-14 R/B,1989-080C,2026-06-13T21:10:43.267872,12.50569022,.12289217,82.5929,111.4307,324.9648,27.6224,0,U,20262,999,67217,.92412454E-4,.309E-5,0
DELTA 1 R/B,1989-089B,2026-06-13T13:31:44.338368,14.50729331,.0068913,97.0637,356.7018,178.3878,181.7555,0,U,20323,999,90963,.89381E-4,.327E-5,0
ARIANE 40 R/B,1990-005H,2026-06-13T22:01:30.797184,14.39925735,.0008798,98.2960,222.6353,275.7051,84.3134,0,U,20443,999,90665,.81825389E-4,.215E-5,0
DELTA 2 R/B(1),1990-008B,2026-06-13T22:40:16.120992,15.68352967,.00656046,35.6001,257.3443,83.4720,277.3483,0,U,20453,999,94119,.60673345E-3,.80584E-3,0
